[{"OBJECT_NAME":"STARLINK-34855","OBJECT_ID":"2025-192N","EPOCH":"2026-03-09T17:20:13.620768","MEAN_MOTION":15.30192662,"ECCENTRICITY":0.00014519,"INCLINATION":53.1598,"RA_OF_ASC_NODE":232.5949,"ARG_OF_PERICENTER":55.9663,"MEAN_ANOMALY":304.1475,"EPHEMERIS_TYPE":0,"CLASSIFICATION_TYPE":"U","NORAD_CAT_ID":65416,"ELEMENT_SET_NO":999,"REV_AT_EPOCH":2938,"BSTAR":0.0010857961,"MEAN_MOTION_DOT":0.0003193,"MEAN_MOTION_DDOT":0},{"OBJECT_NAME":"COSMOS 2251 DEB","OBJECT_ID":"1993-036BXP","EPOCH":"2026-03-04T07:23:49.847712","MEAN_MOTION":15.24789556,"ECCENTRICITY":0.00190834,"INCLINATION":73.9759,"RA_OF_ASC_NODE":64.3004,"ARG_OF_PERICENTER":239.4537,"MEAN_ANOMALY":120.4779,"EPHEMERIS_TYPE":0,"CLASSIFICATION_TYPE":"U","NORAD_CAT_ID":47059,"ELEMENT_SET_NO":999,"REV_AT_EPOCH":9543,"BSTAR":0.0048704033,"MEAN_MOTION_DOT":0.00123422,"MEAN_MOTION_DDOT":0}]
